      2.10          N: GNSS NAV DATA                        RINEX VERSION / TYPE
fic2rin                                 03/17/2022 00:17:33 PGM / RUN BY / DATE
                                                            END OF HEADER
27 22  3 16  2  0  0.0 1.552845351398e-04 1.250555214938e-11 0.000000000000e+00
    3.300000000000e+01 2.062500000000e+01 4.043739866568e-09-9.956224333164e-01
    1.195818185806e-06 1.039976160973e-02 1.104176044464e-05 5.153655244827e+03
    2.664000000000e+05 2.272427082062e-07 2.810719882428e+00 8.568167686462e-08
    9.733471824456e-01 1.722187500000e+02 6.516006062836e-01-7.751394305258e-09
   -1.760787629587e-10 1.000000000000e+00 2.201000000000e+03 0.000000000000e+00
    2.400000000000e+00 0.000000000000e+00 1.396983861923e-09 3.300000000000e+01
    2.592000000000e+05 4.000000000000e+00
23 22  3 16  2  0  0.0-7.151160389185e-06-3.183231456205e-12 0.000000000000e+00
    1.330000000000e+02-6.325000000000e+01 4.738411659579e-09 2.327569765241e+00
   -3.244727849960e-06 1.997577841394e-03 2.475455403328e-06 5.153702852249e+03
    2.664000000000e+05 1.490116119385e-08-1.405022873917e+00 4.656612873077e-08
    9.674303619978e-01 3.373750000000e+02 2.990975709344e+00-8.384634967987e-09
   -2.871548182937e-10 1.000000000000e+00 2.201000000000e+03 0.000000000000e+00
    3.400000000000e+00 0.000000000000e+00-8.381903171539e-09 1.330000000000e+02
    2.592000000000e+05 4.000000000000e+00
12 22  3 16  2  0  0.0-1.855101436377e-04-5.798028723802e-12 0.000000000000e+00
    1.060000000000e+02-3.478125000000e+01 4.586262464812e-09 1.759033155957e+00
   -1.907348632812e-06 8.734664879739e-03 5.777925252914e-06 5.153577142715e+03
    2.664000000000e+05-5.587935447693e-08 1.835747624749e+00-2.086162567139e-07
    9.696282252504e-01 2.726562500000e+02 1.259389172854e+00-8.128195714834e-09
   -3.228705917133e-10 1.000000000000e+00 2.201000000000e+03 0.000000000000e+00
    3.400000000000e+00 0.000000000000e+00-1.257285475731e-08 1.060000000000e+02
    2.592000000000e+05 4.000000000000e+00
16 22  3 16  2  0  0.0-4.811156541109e-04-4.320099833421e-12 0.000000000000e+00
    9.000000000000e+01-2.931250000000e+01 4.610192033003e-09-9.643360532674e-02
   -1.363456249237e-06 1.279716461431e-02 6.003305315971e-06 5.153612913132e+03
    2.664000000000e+05 2.980232238770e-08 1.854359175766e+00 1.639127731323e-07
    9.695635789005e-01 2.696875000000e+02 7.180142036708e-01-8.321775206769e-09
   -3.110843864848e-10 1.000000000000e+00 2.201000000000e+03 0.000000000000e+00
    2.400000000000e+00 0.000000000000e+00-1.024454832077e-08 9.000000000000e+01
    2.592000000000e+05 4.000000000000e+00
29 22  3 16  2  0  0.0-4.918342456222e-04-4.547473508865e-12 0.000000000000e+00
    8.200000000000e+01 3.640625000000e+01 3.843017219950e-09-8.562220638058e-01
    1.689419150352e-06 1.929570920765e-03 1.229159533978e-05 5.153741664886e+03
    2.664000000000e+05-1.490116119385e-08 2.886419083146e+00-1.862645149231e-09
    9.818521127101e-01 1.558437500000e+02 2.235148088398e+00-7.621388890010e-09
   -1.189335254873e-10 1.000000000000e+00 2.201000000000e+03 0.000000000000e+00
    2.400000000000e+00 0.000000000000e+00-1.024454832077e-08 8.200000000000e+01
    2.592000000000e+05 4.000000000000e+00
15 22  3 16  2  0  0.0-7.647601887584e-05 2.955857780762e-12 0.000000000000e+00
    7.300000000000e+01-9.825000000000e+01 4.750197864808e-09-1.956802196940e+00
   -5.047768354416e-06 1.395876053721e-02 1.083873212337e-05 5.153762273788e+03
    2.664000000000e+05 2.421438694000e-07-4.556672641648e-01-9.313225746155e-08
    9.304006270121e-01 1.511875000000e+02 1.079485729256e+00-7.941759377584e-09
   -1.214336296267e-10 1.000000000000e+00 2.201000000000e+03 0.000000000000e+00
    2.400000000000e+00 0.000000000000e+00-1.071020960808e-08 7.300000000000e+01
    2.592000000000e+05 4.000000000000e+00
32 22  3 16  2  0  0.0-8.560717105865e-05-7.389644451905e-12 0.000000000000e+00
    7.800000000000e+01-6.525000000000e+01 4.316251217760e-09-3.661736602827e-01
   -3.447756171227e-06 5.754556739703e-03 1.094490289688e-05 5.153583948135e+03
    2.664000000000e+05 3.539025783539e-08-3.375867181161e-01 1.024454832077e-07
    9.584493191927e-01 1.684062500000e+02-2.321223705610e+00-7.994975879979e-09
   -1.242908915002e-10 1.000000000000e+00 2.201000000000e+03 0.000000000000e+00
    2.400000000000e+00 0.000000000000e+00 4.656612873077e-10 7.800000000000e+01
    2.592000000000e+05 4.000000000000e+00
30 22  3 16  2  0  0.0-5.189133808017e-04-2.046363078989e-12 0.000000000000e+00
    4.600000000000e+01 5.384375000000e+01 5.212002815123e-09 2.451450660051e+00
    2.766028046608e-06 5.623034317978e-03 7.495284080505e-06 5.153563993454e+03
    2.664000000000e+05-6.519258022308e-08 7.351737704585e-01-3.352761268616e-08
    9.362300424935e-01 2.222812500000e+02-2.728988693036e+00-8.345347617226e-09
    5.193073455211e-10 1.000000000000e+00 2.201000000000e+03 0.000000000000e+00
    2.400000000000e+00 0.000000000000e+00 3.725290298462e-09 4.600000000000e+01
    2.592000000000e+05 4.000000000000e+00
22 22  3 16  2  0  0.0 2.281530760229e-04 5.798028723802e-12 0.000000000000e+00
    1.030000000000e+02-5.059375000000e+01 4.228747572882e-09-1.161375509209e+00
   -2.598389983177e-06 1.306813943665e-02 1.140497624874e-05 5.153673343658e+03
    2.664000000000e+05 2.421438694000e-08-2.474297789006e-01 3.222376108170e-07
    9.617823381177e-01 1.623125000000e+02-1.866671245001e+00-7.944616639458e-09
   -7.821754378894e-11 1.000000000000e+00 2.201000000000e+03 0.000000000000e+00
    2.400000000000e+00 0.000000000000e+00-9.778887033463e-09 1.030000000000e+02
    2.592000000000e+05 4.000000000000e+00
19 22  3 16  2  0  0.0 1.315604895353e-04 5.002220859751e-12 0.000000000000e+00
    5.300000000000e+01 4.406250000000e+01 3.902662561561e-09 1.361222420515e+00
    2.190470695496e-06 9.040817851201e-03 1.226365566254e-05 5.153696031570e+03
    2.664000000000e+05 1.396983861923e-07 2.918180523898e+00-1.657754182816e-07
    9.786149090676e-01 1.516250000000e+02 2.019942844282e+00-7.605316791971e-09
   -1.282196265764e-10 1.000000000000e+00 2.201000000000e+03 0.000000000000e+00
    2.400000000000e+00 0.000000000000e+00-1.583248376846e-08 5.300000000000e+01
    2.592000000000e+05 4.000000000000e+00
20 22  3 16  2  0  0.0 5.162828601897e-04-1.136868377216e-13 0.000000000000e+00
    3.600000000000e+01-5.612500000000e+01 5.421297247362e-09-2.226902840722e+00
   -2.780929207802e-06 5.038750241511e-03 1.206994056702e-06 5.153767871857e+03
    2.664000000000e+05-6.891787052155e-08-1.532639334432e+00-1.210719347000e-07
    9.417751383833e-01 3.426250000000e+02-3.130720983735e+00-8.814295722225e-09
   -2.317953694933e-10 1.000000000000e+00 2.201000000000e+03 0.000000000000e+00
    2.400000000000e+00 0.000000000000e+00-8.381903171539e-09 3.600000000000e+01
    2.592000000000e+05 4.000000000000e+00
17 22  3 16  2  0  0.0 5.877539515495e-04 4.888534022029e-12 0.000000000000e+00
    4.000000000000e+01 5.246875000000e+01 3.896590880079e-09-1.060473776098e+00
    2.769753336906e-06 1.351114083081e-02 1.247599720955e-05 5.153782978058e+03
    2.664000000000e+05-2.589076757431e-07 2.873353535028e+00 1.322478055954e-07
    9.798177495707e-01 1.563125000000e+02-1.493366688557e+00-7.812111120071e-09
   -1.367914121971e-10 1.000000000000e+00 2.201000000000e+03 0.000000000000e+00
    2.400000000000e+00 0.000000000000e+00-1.117587089539e-08 4.000000000000e+01
    2.592000000000e+05 4.000000000000e+00
14 22  3 16  2  0  0.0-9.422842413187e-05-3.637978807092e-12 0.000000000000e+00
    2.400000000000e+01-2.875000000000e+01 5.033066790291e-09 1.818739777195e+00
   -1.583248376846e-06 1.565562677570e-03 5.461275577545e-06 5.153645496368e+03
    2.664000000000e+05 2.421438694000e-08 1.803980538596e+00 4.097819328308e-08
    9.530309412669e-01 2.686562500000e+02 3.025127847895e+00-8.335704358402e-09
   -3.360854278785e-10 1.000000000000e+00 2.201000000000e+03 0.000000000000e+00
    2.400000000000e+00 0.000000000000e+00-7.450580596924e-09 5.360000000000e+02
    2.592000000000e+05 4.000000000000e+00
18 22  3 16  2  0  0.0 2.188878133893e-04-8.753886504564e-12 0.000000000000e+00
    9.600000000000e+01 9.981250000000e+01 4.520188283986e-09-2.976535934018e+00
    5.235895514488e-06 2.132089575753e-03 5.621463060379e-06 5.153612903595e+03
    2.664000000000e+05-6.891787052155e-08-2.404924101233e+00 9.313225746155e-09
    9.709843020336e-01 2.784687500000e+02 3.088389102591e+00-8.124981295227e-09
    3.782300405137e-10 1.000000000000e+00 2.201000000000e+03 0.000000000000e+00
    2.400000000000e+00 0.000000000000e+00-8.381903171539e-09 8.640000000000e+02
    2.592000000000e+05 4.000000000000e+00
11 22  3 16  2  0  0.0-6.242748349905e-05 8.640199666843e-12 0.000000000000e+00
    1.520000000000e+02 1.014062500000e+02 4.778413325809e-09-1.024031159877e+00
    5.412846803665e-06 2.719891490415e-04 4.783272743225e-06 5.153782833099e+03
    2.664000000000e+05 5.029141902924e-08-2.369223436100e+00-5.587935447693e-09
    9.622888369297e-01 2.884375000000e+02 2.784174932518e+00-8.393206753608e-09
    3.800158291846e-10 1.000000000000e+00 2.201000000000e+03 0.000000000000e+00
    7.680000000000e+02 6.300000000000e+01-8.847564458847e-09 4.080000000000e+02
    2.592000000000e+05 4.000000000000e+00
28 22  3 16  2  0  0.0 3.795735538006e-04-8.412825991400e-12 0.000000000000e+00
    8.600000000000e+01-2.965625000000e+01 4.699481466552e-09-5.523731873033e-01
   -1.657754182816e-06 1.671287626959e-02 6.396323442459e-06 5.153685319901e+03
    2.664000000000e+05-2.309679985046e-07 1.857816836774e+00 5.587935447693e-09
    9.687175909303e-01 2.649062500000e+02-1.285134222564e+00-8.408207378444e-09
   -2.471531520637e-10 1.000000000000e+00 2.201000000000e+03 0.000000000000e+00
    4.850000000000e+00 6.300000000000e+01-1.117587089539e-08 8.600000000000e+01
    2.592000000000e+05 4.000000000000e+00
